{
  "type": "FeatureCollection",
  "features": [
    {
      "type": "Feature",
      "properties": {
        "norad_id": 50032,
        "name": "COSMOS 1408 DEB",
        "group": "cosmos-1408-debris",
        "lat": -9.571841209513787,
        "lon": -114.20294914391305,
        "alt_km": 426.39774081996256,
        "timestamp": "2025-12-06T20:37:56.342245+00:00",
        "meta_object_name": "COSMOS 1408 DEB",
        "meta_object_id": "1982-092RU",
        "meta_epoch": "2025-12-06T15:09:08.436960",
        "meta_mean_motion": 15.45601684,
        "meta_eccentricity": 0.00147727,
        "meta_inclination": 82.5648,
        "meta_ra_of_asc_node": 64.7691,
        "meta_arg_of_pericenter": 232.3671,
        "meta_mean_anomaly": 127.6239,
        "meta_ephemeris_type": 0,
        "meta_classification_type": "U",
        "meta_norad_cat_id": 50032,
        "meta_element_set_no": 999,
        "meta_rev_at_epoch": 22509,
        "meta_bstar": 0.00017941918,
        "meta_mean_motion_dot": 8.706e-05,
        "meta_mean_motion_ddot": 0,
        "tle_line1": "1 50032U 82092RU  25340.63134765  .00008706  00000+0  17942-3 0  9996",
        "tle_line2": "2 50032  82.5648  64.7691 0014772 232.3671 127.6239 15.45601684225091"
      },
      "geometry": {
        "type": "Point",
        "coordinates": [
          -114.20294914391305,
          -9.571841209513787
        ]
      }
    },
    {
      "type": "Feature",
      "properties": {
        "norad_id": 50058,
        "name": "COSMOS 1408 DEB",
        "group": "cosmos-1408-debris",
        "lat": 6.67216630541435,
        "lon": 76.36290615171492,
        "alt_km": 383.78390139740986,
        "timestamp": "2025-12-06T20:37:56.342297+00:00",
        "meta_object_name": "COSMOS 1408 DEB",
        "meta_object_id": "1982-092SW",
        "meta_epoch": "2025-12-06T14:27:35.068608",
        "meta_mean_motion": 15.63568308,
        "meta_eccentricity": 0.00163084,
        "meta_inclination": 82.6135,
        "meta_ra_of_asc_node": 75.7623,
        "meta_arg_of_pericenter": 120.6235,
        "meta_mean_anomaly": 239.6634,
        "meta_ephemeris_type": 0,
        "meta_classification_type": "U",
        "meta_norad_cat_id": 50058,
        "meta_element_set_no": 999,
        "meta_rev_at_epoch": 22708,
        "meta_bstar": 0.00051315474,
        "meta_mean_motion_dot": 0.00048088,
        "meta_mean_motion_ddot": 0,
        "tle_line1": "1 50058U 82092SW  25340.60248922  .00048088  00000+0  51315-3 0  9991",
        "tle_line2": "2 50058  82.6135  75.7623 0016308 120.6235 239.6634 15.63568308227089"
      },
      "geometry": {
        "type": "Point",
        "coordinates": [
          76.36290615171492,
          6.67216630541435
        ]
      }
    },
    {
      "type": "Feature",
      "properties": {
        "norad_id": 50404,
        "name": "COSMOS 1408 DEB",
        "group": "cosmos-1408-debris",
        "lat": 72.0489424826711,
        "lon": 16.03287081696729,
        "alt_km": 566.7972566660956,
        "timestamp": "2025-12-06T20:37:56.342318+00:00",
        "meta_object_name": "COSMOS 1408 DEB",
        "meta_object_id": "1982-092ADS",
        "meta_epoch": "2025-12-06T02:41:05.955072",
        "meta_mean_motion": 15.12434812,
        "meta_eccentricity": 0.01747261,
        "meta_inclination": 82.2047,
        "meta_ra_of_asc_node": 221.8118,
        "meta_arg_of_pericenter": 221.7921,
        "meta_mean_anomaly": 136.9859,
        "meta_ephemeris_type": 0,
        "meta_classification_type": "U",
        "meta_norad_cat_id": 50404,
        "meta_element_set_no": 999,
        "meta_rev_at_epoch": 21093,
        "meta_bstar": 0.0038004271,
        "meta_mean_motion_dot": 0.00097112,
        "meta_mean_motion_ddot": 0,
        "tle_line1": "1 50404U 82092ADS 25340.11187448  .00097112  00000+0  38004-2 0  9998",
        "tle_line2": "2 50404  82.2047 221.8118 0174726 221.7921 136.9859 15.12434812210939"
      },
      "geometry": {
        "type": "Point",
        "coordinates": [
          16.03287081696729,
          72.0489424826711
        ]
      }
    },
    {
      "type": "Feature",
      "properties": {
        "norad_id": 50621,
        "name": "COSMOS 1408 DEB",
        "group": "cosmos-1408-debris",
        "lat": -0.05153363221957317,
        "lon": -99.69242690486895,
        "alt_km": 382.38149458038606,
        "timestamp": "2025-12-06T20:37:56.342336+00:00",
        "meta_object_name": "COSMOS 1408 DEB",
        "meta_object_id": "1982-092ALR",
        "meta_epoch": "2025-12-06T05:58:21.140256",
        "meta_mean_motion": 15.56160395,
        "meta_eccentricity": 0.00287722,
        "meta_inclination": 82.5723,
        "meta_ra_of_asc_node": 80.9361,
        "meta_arg_of_pericenter": 176.4358,
        "meta_mean_anomaly": 183.7108,
        "meta_ephemeris_type": 0,
        "meta_classification_type": "U",
        "meta_norad_cat_id": 50621,
        "meta_element_set_no": 999,
        "meta_rev_at_epoch": 22149,
        "meta_bstar": 0.00059401028,
        "meta_mean_motion_dot": 0.00042512,
        "meta_mean_motion_ddot": 0,
        "tle_line1": "1 50621U 82092ALR 25340.24885579  .00042512  00000+0  59401-3 0  9992",
        "tle_line2": "2 50621  82.5723  80.9361 0028772 176.4358 183.7108 15.56160395221497"
      },
      "geometry": {
        "type": "Point",
        "coordinates": [
          -99.69242690486895,
          -0.05153363221957317
        ]
      }
    }
  ]
}